NORAD_CAT_ID,OBJECT_NAME,OBJECT_TYPE,EPOCH,MEAN_MOTION,ECCENTRICITY,INCLINATION,RA_OF_ASC_NODE,ARG_OF_PERICENTER,MEAN_ANOMALY,BSTAR,MEAN_MOTION_DOT,MEAN_MOTION_DDOT,TLE_LINE0,TLE_LINE1,TLE_LINE2,SEMIMAJOR_AXIS,PERIOD,APOGEE,PERIGEE,DECAYED
53438.0,STARLINK-4526,PAYLOAD,2022-12-18 08:53:31,15.088366,0.0001901,53.2211,348.9619,55.5768,304.5404,4.3975e-06,-2.18e-06,0.0,0 STARLINK-4526,1 53438U 22097BC  22352.37049981 -.00000218  00000-0  43975-5 0  9993,2 53438  53.2211 348.9619 0001901  55.5768 304.5404 15.08836600 21062,6917.891,95.438,541.071,538.441,0.0
53438.0,STARLINK-4526,PAYLOAD,2022-12-18 16:50:27,15.0882544,0.0001915,53.2203,347.4749,51.2022,308.9141,-2.398e-05,-6.7e-06,0.0,0 STARLINK-4526,1 53438U 22097BC  22352.70170933 -.00000670  00000-0 -23980-4 0  9998,2 53438  53.2203 347.4749 0001915  51.2022 308.9141 15.08825440 21114,6917.925,95.438,541.115,538.465,0.0
53438.0,STARLINK-4526,PAYLOAD,2022-12-19 07:08:55,15.08834609,0.0001847,53.22,344.7946,50.108,310.0074,-2.2715e-05,-6.5e-06,0.0,0 STARLINK-4526,1 53438U 22097BC  22353.29786542 -.00000650  00000-0 -22715-4 0  9995,2 53438  53.2200 344.7946 0001847  50.1080 310.0074 15.08834609 20717,6917.897,95.438,541.04,538.484,0.0
53438.0,STARLINK-4526,PAYLOAD,2022-12-19 16:41:13,15.08841514,0.0001771999999999,53.2194,343.0124,45.9573,314.1565,5.9412e-05,6.58e-06,0.0,0 STARLINK-4526,1 53438U 22097BC  22353.69529993  .00000658  00000-0  59412-4 0  9994,2 53438  53.2194 343.0124 0001772  45.9573 314.1565 15.08841514 21269,6917.876,95.437,540.967,538.515,0.0
53438.0,STARLINK-4526,PAYLOAD,2022-12-20 11:45:50,15.08849585,0.0001945,53.2199,339.4442,42.8485,317.2658,0.00013241,1.82e-05,0.0,0 STARLINK-4526,1 53438U 22097BC  22354.49017052  .00001820  00000-0  13241-3 0  9992,2 53438  53.2199 339.4442 0001945  42.8485 317.2658 15.08849585 21382,6917.851,95.437,541.062,538.371,0.0
53438.0,STARLINK-4526,PAYLOAD,2022-12-21 10:01:16,15.08821236,0.0002026,53.2207,335.2806,45.0887,315.027,-4.407100000000001e-05,-9.89e-06,0.0,0 STARLINK-4526,1 53438U 22097BC  22355.41755462 -.00000989  00000-0 -44071-4 0  9992,2 53438  53.2207 335.2806 0002026  45.0887 315.0270 15.08821236 21527,6917.938,95.439,541.2040000000002,538.401,0.0
53438.0,STARLINK-4526,PAYLOAD,2022-12-21 16:22:48,15.08828282,0.000155,53.2195,334.0915,48.2636,311.8489,-4.15e-05,-9.48e-06,0.0,0 STARLINK-4526,1 53438U 22097BC  22355.68251009 -.00000948  00000-0 -41500-4 0  9998,2 53438  53.2195 334.0915 0001550  48.2636 311.8489 15.08828282 21073,6917.916,95.438,540.8530000000002,538.7090000000002,0.0
53438.0,STARLINK-4526,PAYLOAD,2022-12-22 05:05:53,15.08846382,0.0001828,53.2198,331.7133,46.1523,313.962,-5.5229e-05,-1.167e-05,0.0,0 STARLINK-4526,1 53438U 22097BC  22356.21242015 -.00001167  00000-0 -55229-4 0  9992,2 53438  53.2198 331.7133 0001828  46.1523 313.9620 15.08846382 21152,6917.861,95.437,540.99,538.461,0.0
53438.0,STARLINK-4526,PAYLOAD,2022-12-22 09:52:01,15.08849664,0.0001985,53.2198,330.8208,49.2528,310.8636,4.4951e-05,4.27e-06,0.0,0 STARLINK-4526,1 53438U 22097BC  22356.41113408  .00000427  00000-0  44951-4 0  9993,2 53438  53.2198 330.8208 0001985  49.2528 310.8636 15.08849664 21674,6917.851,95.437,541.089,538.3430000000002,0.0
53438.0,STARLINK-4526,PAYLOAD,2022-12-23 04:56:40,15.08826292,0.0002006,53.2203,327.2516,53.1629,306.9546,0.00011639,1.564e-05,0.0,0 STARLINK-4526,1 53438U 22097BC  22357.20602683  .00001564  00000-0  11639-3 0  9998,2 53438  53.2203 327.2516 0002006  53.1629 306.9546 15.08826292 21302,6917.922,95.438,541.175,538.4,0.0
53438.0,STARLINK-4526,PAYLOAD,2022-12-23 09:42:50,15.08826478,0.0002004,53.2203,326.3592,51.7593,308.3579,0.0001250999999999,1.703e-05,0.0,0 STARLINK-4526,1 53438U 22097BC  22357.40474796  .00001703  00000-0  12510-3 0  9996,2 53438  53.2203 326.3592 0002004  51.7593 308.3579 15.08826478 21823,6917.922,95.438,541.173,538.4,0.0
53438.0,STARLINK-4526,PAYLOAD,2022-12-24 04:47:28,15.08835287,0.0001942,53.2198,322.7927,51.5848,308.5318,-2.2961000000000003e-06,-3.25e-06,0.0,0 STARLINK-4526,1 53438U 22097BC  22358.19963058 -.00000325  00000-0 -22961-5 0  9991,2 53438  53.2198 322.7927 0001942  51.5848 308.5318 15.08835287 21943,6917.895,95.438,541.1030000000002,538.4159999999998,0.0
53438.0,STARLINK-4526,PAYLOAD,2022-12-24 22:16:41,15.0884212,0.0001838,53.2195,319.5225,49.4541,310.6611,8.8499e-05,1.121e-05,0.0,0 STARLINK-4526,1 53438U 22097BC  22358.92826212  .00001121  00000-0  88499-4 0  9992,2 53438  53.2195 319.5225 0001838  49.4541 310.6611 15.08842120 21567,6917.874,95.437,541.01,538.467,0.0
53438.0,STARLINK-4526,PAYLOAD,2022-12-25 04:38:15,15.08833496,0.0001846,53.2198,318.3319,47.2299,312.8848,3.8618e-05,3.26e-06,0.0,0 STARLINK-4526,1 53438U 22097BC  22359.19322947  .00000326  00000-0  38618-4 0  9992,2 53438  53.2198 318.3319 0001846  47.2299 312.8848 15.08833496 21603,6917.9,95.438,541.0419999999998,538.488,0.0
53438.0,STARLINK-4526,PAYLOAD,2022-12-25 14:10:34,15.08831065,0.0001917,53.2196,316.548,47.5393,312.5761,-3.0541e-05,-7.74e-06,0.0,0 STARLINK-4526,1 53438U 22097BC  22359.59067484 -.00000774  00000-0 -30541-4 0  9994,2 53438  53.2196 316.5480 0001917  47.5393 312.5761 15.08831065 22159,6917.908,95.438,541.099,538.447,0.0
53438.0,STARLINK-4526,PAYLOAD,2022-12-26 06:04:25,15.08837116,0.0001897,53.2192,313.5737,45.8305,314.2843,-3.8205e-05,-8.96e-06,0.0,0 STARLINK-4526,1 53438U 22097BC  22360.25307487 -.00000896  00000-0 -38205-4 0  9999,2 53438  53.2192 313.5737 0001897  45.8305 314.2843 15.08837116 22252,6917.889,95.438,541.067,538.442,0.0
53438.0,STARLINK-4526,PAYLOAD,2022-12-27 07:30:35,15.08842516,0.0002008,53.2194,308.8164,47.7854,312.3308,8.4341e-05,1.054e-05,0.0,0 STARLINK-4526,1 53438U 22097BC  22361.31290704  .00001054  00000-0  84341-4 0  9997,2 53438  53.2194 308.8164 0002008  47.7854 312.3308 15.08842516 22413,6917.873000000001,95.437,541.127,538.349,0.0
53438.0,STARLINK-4526,PAYLOAD,2022-12-27 13:52:06,15.08852378,0.0001958,53.2202,307.6284,50.0499,310.0665,0.00017346,2.474e-05,0.0,0 STARLINK-4526,1 53438U 22097BC  22361.57785668  .00002474  00000-0  17346-3 0  9990,2 53438  53.2202 307.6284 0001958  50.0499 310.0665 15.08852378 21965,6917.843000000003,95.437,541.062,538.3530000000002,0.0
53438.0,STARLINK-4526,PAYLOAD,2022-12-27 20:13:39,15.08839585,0.0001516,53.22,306.4354,36.0393,324.0701,0.00012054,1.631e-05,0.0,0 STARLINK-4526,1 53438U 22097BC  22361.84282290  .00001631  00000-0  12054-3 0  9998,2 53438  53.2200 306.4354 0001516  36.0393 324.0701 15.08839585 22495,6917.882,95.438,540.795,538.698,0.0
53438.0,STARLINK-4526,PAYLOAD,2022-12-28 05:45:57,15.088622199999998,0.0001547,53.2198,304.6515,48.0218,312.0905,0.00018759,2.701e-05,0.0,0 STARLINK-4526,1 53438U 22097BC  22362.24024353  .00002701  00000-0  18759-3 0  9994,2 53438  53.2198 304.6515 0001547  48.0218 312.0905 15.08862220 22555,6917.812,95.436,540.748,538.607,0.0
53438.0,STARLINK-4526,PAYLOAD,2022-12-29 05:36:46,15.08833403,0.0001309,53.2211,300.1911,35.9586,324.1494,-4.8339e-05,-1.057e-05,0.0,0 STARLINK-4526,1 53438U 22097BC  22363.23386781 -.00001057  00000-0 -48339-4 0  9993,2 53438  53.2211 300.1911 0001309  35.9586 324.1494 15.08833403 22212,6917.901,95.438,540.6709999999998,538.86,0.0
53438.0,STARLINK-4526,PAYLOAD,2022-12-29 13:33:42,15.08826115,0.0001514,53.221,298.7058,37.7715,322.3383,-0.00025127,-4.283e-05,0.0,0 STARLINK-4526,1 53438U 22097BC  22363.56508035 -.00004283  00000-0 -25127-3 0  9990,2 53438  53.2210 298.7058 0001514  37.7715 322.3383 15.08826115 22261,6917.9230000000025,95.438,540.835,538.74,0.0
53438.0,STARLINK-4526,PAYLOAD,2022-12-30 02:16:48,15.08831129,0.0001831,53.2195,296.3275,43.4976,316.616,-0.00023597,-4.041e-05,0.0,0 STARLINK-4526,1 53438U 22097BC  22364.09500256 -.00004041  00000-0 -23597-3 0  9997,2 53438  53.2195 296.3275 0001831  43.4976 316.6160 15.08831129 22342,6917.908,95.438,541.039,538.506,0.0
53438.0,STARLINK-4526,PAYLOAD,2022-12-30 19:46:02,15.08824071,0.0001844,53.2171,293.0572,37.0535,323.0584,0.00023798,3.5e-05,0.0,0 STARLINK-4526,1 53438U 22097BC  22364.82363429  .00003500  00000-0  23798-3 0  9997,2 53438  53.2171 293.0572 0001844  37.0535 323.0584 15.08824071 22456,6917.929,95.439,541.07,538.518,0.0
53438.0,STARLINK-4526,PAYLOAD,2022-12-31 05:18:19,15.08847481,0.0001616,53.2186,291.2718,40.6382,319.473,0.00038659,5.871e-05,0.0,0 STARLINK-4526,1 53438U 22097BC  22365.22105468  .00005871  00000-0  38659-3 0  9994,2 53438  53.2186 291.2718 0001616  40.6382 319.4730 15.08847481 22510,6917.858,95.437,540.84,538.605,0.0
53438.0,STARLINK-4526,PAYLOAD,2022-12-31 19:36:47,15.08849679,0.0001639,53.2183,288.5937,44.9352,315.1773,0.00028427,4.24e-05,0.0,0 STARLINK-4526,1 53438U 22097BC  22365.81721614  .00004240  00000-0  28427-3 0  9997,2 53438  53.2183 288.5937 0001639  44.9352 315.1773 15.08849679 23093,6917.851,95.437,540.85,538.582,0.0
53438.0,STARLINK-4526,PAYLOAD,2023-01-01 05:09:08,15.08825363,0.0001828,53.2191,286.8136,49.0534,311.0616,7.2291e-06,-1.73e-06,0.0,0 STARLINK-4526,1 53438U 22097BC  23001.21468131 -.00000173  00000-0  72291-5 0  9993,2 53438  53.2191 286.8136 0001828  49.0534 311.0616 15.08825363 22669,6917.925,95.438,541.055,538.526,0.0
53438.0,STARLINK-4526,PAYLOAD,2023-01-01 11:30:41,15.08823254,0.0002081,53.2189,285.6234,40.3409,319.7737,-0.00012273,-2.24e-05,0.0,0 STARLINK-4526,1 53438U 22097BC  23001.47964863 -.00002240  00000-0 -12273-3 0  9994,2 53438  53.2189 285.6234 0002081  40.3409 319.7737 15.08823254 23194,6917.932,95.439,541.236,538.357,0.0
53438.0,STARLINK-4526,PAYLOAD,2023-01-01 19:27:37,15.08826572,0.000187,53.2184,284.1372,53.8499,306.2666,-0.0002683999999999,-4.556e-05,0.0,0 STARLINK-4526,1 53438U 22097BC  23001.81085465 -.00004556  00000-0 -26840-3 0  9991,2 53438  53.2184 284.1372 0001870  53.8499 306.2666 15.08826572 23243,6917.920999999999,95.438,541.08,538.493,0.0
